{
  "norad_id": 59522,
  "name": "STARLINK-31453",
  "history": [
    {
      "epoch": "2026-03-28T16:34:42.831264",
      "apogee_km": 484.04749110861303,
      "perigee_km": 481.9220528060969,
      "latitude_deg": -13.80929636309217,
      "longitude_deg": -161.48574303998612,
      "semi_major_axis_km": 6861.121771957355,
      "eccentricity": 0.00015489,
      "inclination_deg": 43.0024,
      "raan_deg": 192.9334,
      "arg_perigee_deg": 285.4301,
      "mean_anomaly_deg": 74.6379,
      "mean_motion_rev_day": 15.27601482
    }
  ]
}