{"fetched_at":"2026-03-29T16:36:15Z","count":15609,"tles":[{"name":"STARLINK-31453","line1":"1 59522U 24073M   26087.69077351  .00034375  00000+0  12521-2 0  9994","line2":"2 59522  43.0024 192.9334 0001548 285.4301  74.6379 15.27601482109282","category":"Starlink"}]}